216P/LINEAR,e,9.0616,359.7800,151.7714,3.860310,0.1299484,0.44902374,71.0817,07/07.0/2025,2000,g 13.0,4.0
# From MPEC 2025-MC0
217P/LINEAR,e,12.8655,125.3712,247.0374,3.944580,0.1258065,0.68909836,5.4165,07/07.0/2025,2000,g 12.0,4.0
# From MPEC 2022-K19
218P/LINEAR,e,2.7266,174.6720,61.4270,3.061054,0.1840338,0.63090923,315.8546,07/07.0/2025,2000,g 16.0,4.0
# From MPC182889
219P/LINEAR,e,11.5105,230.8732,108.0194,3.657889,0.1408829,0.35599273,71.5250,07/07.0/2025,2000,g 11.0,4.0
# From MPEC 2024-A43
220P/McNaught,e,8.1208,150.0907,180.5823,3.120317,0.1788159,0.50038846,298.8193,07/07.0/2025,2000,g 15.0,4.0
# From MPEC 2022-UY9
221P/LINEAR,e,10.8103,226.3714,42.0921,3.384784,0.1582733,0.52237320,201.7677,07/07.0/2025,2000,g 14.5,4.0
# From MPC 92277
222P/LINEAR,e,5.0975,6.7523,346.2738,2.896149,0.1999736,0.71481910,84.0113,07/07.0/2025,2000,g 20.0,4.0
# From MPEC 2023-A50
223P/Skiff,e,27.0059,346.7038,37.9839,4.158258,0.1162350,0.41623833,273.0822,07/07.0/2025,2000,g 12.0,4.0
# From MPEC 2024-L77
224P/LINEAR-NEAT,e,13.3012,40.0411,16.8162,3.447227,0.1539924,0.40554893,155.6636,07/07.0/2025,2000,g 15.5,4.0
# From MPEC 2024-F91
225P/LINEAR,e,21.3610,14.2110,3.9062,3.647456,0.1414878,0.63814541,98.9222,07/07.0/2025,2000,g 18.0,4.0
# From MPEC 2024-MB8
226P/Pigott-LINEAR-Kowalski,e,44.0448,54.0134,341.0329,3.765319,0.1348967,0.52884650,75.2649,07/07.0/2025,2000,g 12.5,4.0
# From MPEC 2024-R10
227P/Catalina-LINEAR,e,7.5072,36.8013,105.5947,3.437673,0.1546348,0.52771009,75.1014,07/07.0/2025,2000,g 16.5,2.0
# From MPEC 2022-HC2
228P/LINEAR,e,7.9158,30.9542,114.8055,4.162080,0.1160749,0.17743085,225.8039,07/07.0/2025,2000,g 14.1,4.0
# From MPC182889
229P/Gibbs,e,26.0963,157.8787,224.2303,3.923890,0.1268028,0.37806249,15.6197,07/07.0/2025,2000,g 13.0,4.0
# From MPEC 2025-MC0
230P/LINEAR,e,15.4722,106.9262,313.5823,3.455108,0.1534658,0.54543929,184.9714,07/07.0/2025,2000,g 13.0,4.0
# From MPEC 2023-SQ0
231P/LINEAR-NEAT,e,12.2726,132.7772,43.6919,4.062097,0.1203867,0.23999236,268.6820,07/07.0/2025,2000,g 14.5,2.0
# From MPC112394
232P/Hill,e,14.6429,56.0092,53.3049,4.469937,0.1042922,0.33612925,237.8128,07/07.0/2025,2000,g 11.5,4.0
# From MPEC 2021-N06
233P/La Sagra,e,11.2889,74.8975,27.0240,3.026701,0.1871758,0.41299055,325.3472,07/07.0/2025,2000,g 15.0,4.0
# From MPEC 2025-N64
234P/LINEAR,e,11.5336,179.5641,357.4453,3.798184,0.1331497,0.25730650,34.1295,07/07.0/2025,2000,g 12.0,4.0
# From MPC184419
235P/LINEAR,e,9.8127,200.1748,352.1731,3.446403,0.1540476,0.42606298,334.0234,07/07.0/2025,2000,g 12.0,4.0
# From MPEC 2024-P23
236P/LINEAR,e,16.3549,245.5692,119.4321,3.725941,0.1370409,0.50934607,20.9882,07/07.0/2025,2000,g 14.0,4.0
# From MPC182890
237P/LINEAR,e,14.0097,245.3585,25.5441,3.517432,0.1494052,0.43251889,117.2357,07/07.0/2025,2000,g 14.5,2.0
# From MPEC 2024-L77
238P/Read,e,1.2637,51.6492,324.2641,3.167591,0.1748278,0.25058632,197.2246,07/07.0/2025,2000,g 14.5,4.0
# From MPEC 2021-F20
239P/LINEAR,e,11.3065,255.9359,220.3859,4.463726,0.1045100,0.63151415,247.4785,07/07.0/2025,2000,g 17.5,2.0
# From MPEC 2025-N64
240P/NEAT,e,23.5372,74.9114,352.0748,3.860196,0.1299541,0.45036797,338.4345,07/07.0/2025,2000,g 11.0,4.0
# From MPEC 2022-J42
241P/LINEAR,e,21.0949,305.4161,111.6176,4.927832,0.0900991,0.61011683,129.9058,07/07.0/2025,2000,g 13.5,4.0
# From MPEC 2025-MC0
242P/Spahr,e,32.4231,180.2364,244.9908,5.538218,0.0756222,0.28285494,14.7917,07/07.0/2025,2000,g  8.0,4.0
# From MPEC 2025-N64
243P/NEAT,e,7.6445,87.5770,283.7746,3.826801,0.1316589,0.36029187,329.2518,07/07.0/2025,2000,g 12.5,4.0
# From MPEC 2024-L77
244P/Scotti,e,2.2576,354.0068,93.5173,4.904680,0.0907378,0.19982476,87.0937,07/07.0/2025,2000,g  9.0,4.0
# From MPEC 2022-CN4
245P/WISE,e,21.1713,316.8849,316.4998,4.052839,0.1207995,0.45581691,327.7237,07/07.0/2025,2000,g 14.0,4.0
# From MPEC 2024-YC7
246P/NEAT,e,17.4474,74.1968,185.4228,4.302657,0.1104330,0.21868260,186.7130,07/07.0/2025,2000,g 10.5,4.0
# From MPEC 2021-F20
247P/LINEAR,e,13.6581,53.9856,47.5077,3.963784,0.1248933,0.62559008,300.5564,07/07.0/2025,2000,g 16.5,2.0
# From MPEC 2025-MC0
248P/Gibbs,e,6.3519,207.7960,209.9910,5.982415,0.0673580,0.63931716,355.2899,07/07.0/2025,2000,g 14.0,4.0
# From MPEC 2022-YN2
249P/LINEAR,e,8.3841,239.0396,65.7565,2.766083,0.2142428,0.81939194,33.2718,07/07.0/2025,2000,g 15.5,4.0
# From MPC182890
250P/Larson,e,13.1519,73.3023,45.7037,3.776519,0.1342971,0.39830268,6.8866,07/07.0/2025,2000,g 14.5,4.0
# From MPEC 2024-TD8
251P/LINEAR,e,23.3885,219.3372,31.1914,3.511821,0.1497633,0.50419873,76.3588,07/07.0/2025,2000,g 16.5,2.0
# From MPEC 2021-S45
252P/LINEAR,e,10.4200,190.9063,343.3741,3.051267,0.1849200,0.67105939,269.6242,07/07.0/2025,2000,g 17.5,4.0
# From MPC182890
253P/PANSTARRS,e,4.9455,146.8265,230.8499,3.465336,0.1527869,0.41526760,39.5666,07/07.0/2025,2000,g 14.5,4.0
# From MPC184419
254P/McNaught,e,32.5383,129.1788,219.7228,4.620125,0.0992484,0.31844876,172.9570,07/07.0/2025,2000,g 11.0,4.0
# From NK 2214
255P/Levy,e,13.4055,275.6367,186.0458,2.942260,0.1952911,0.71206282,201.7151,07/07.0/2025,2000,g  9.0,4.0
# From MPEC 2024-L77
256P/LINEAR,e,27.6233,81.3239,124.0624,4.634926,0.0987734,0.41802891,83.7656,07/07.0/2025,2000,g 14.0,2.0
# From MPEC 2023-A50
257P/Catalina,e,20.2154,207.7291,117.7229,3.768046,0.1347503,0.42875912,237.5539,07/07.0/2025,2000,g 11.5,4.0
# From MPEC 2021-U31
258P/PANSTARRS,e,6.7512,126.2361,25.6120,4.388724,0.1072005,0.20957897,197.7202,07/07.0/2025,2000,g 13.0,4.0
# From MPC106349
259P/Garradd,e,15.8981,51.3733,257.4855,2.729449,0.2185705,0.33873381,272.3194,07/07.0/2025,2000,g 15.5,4.0
# From MPEC 2022-O01
260P/McNaught,e,15.0429,349.3034,18.4930,3.623642,0.1428848,0.60877757,303.7040,07/07.0/2025,2000,g 13.5,4.0
# From MPEC 2025-N64
261P/Larson,e,6.0733,291.0506,67.3634,3.489602,0.1511960,0.42279485,333.7820,07/07.0/2025,2000,g 14.0,4.0
# From MPC 82322
262P/McNaught-Russell,e,29.2474,217.8862,171.0696,6.869346,0.0547433,0.81595362,251.2182,07/07.0/2025,2000,g 13.5,4.0
# From MPEC 2024-L77
263P/Gibbs,e,11.5267,105.5040,35.0220,3.040829,0.1858729,0.59407253,165.0679,07/07.0/2025,2000,g 18.0,4.0
# From MPC114608
264P/Larsen,e,25.1352,219.1243,341.1392,4.029650,0.1218437,0.34030944,284.8670,07/07.0/2025,2000,g 13.0,4.0
# From MPC 79870
265P/LINEAR,e,14.3401,342.9200,33.5656,4.260908,0.1120601,0.64669040,180.3438,07/07.0/2025,2000,g 14.5,4.0
# From MPEC 2021-F20
266P/Christensen,e,3.4284,4.9464,97.7950,3.527831,0.1487450,0.34094253,282.9026,07/07.0/2025,2000,g 14.7,4.0
# From MPC114608
267P/LONEOS,e,6.1396,228.5424,114.1968,3.207920,0.1715414,0.61495307,75.1437,07/07.0/2025,2000,g 19.5,4.0
# From MPEC 2025-MC0
268P/Bernardi,e,15.6615,125.6323,0.0187,4.591172,0.1001887,0.47448719,20.0894,07/07.0/2025,2000,g 14.0,4.0
# From MPEC 2023-J29
269P/Jedicke,e,7.0838,241.7634,225.7362,7.058253,0.0525604,0.43354280,206.1891,07/07.0/2025,2000,g 10.0,4.0
# From MPC 88332
270P/Gehrels,e,2.9248,223.0238,209.9344,6.648962,0.0574875,0.47018861,252.6875,07/07.0/2025,2000,g  8.0,4.0
# From MPC 92277
271P/van Houten-Lemmon,e,6.8665,9.2765,36.6231,7.032495,0.0528494,0.39585249,230.5256,07/07.0/2025,2000,g 11.0,4.0
# From MPEC 2023-D41
272P/NEAT,e,18.0825,109.4391,27.8904,4.462006,0.1045704,0.45552271,113.5079,07/07.0/2025,2000,g 16.0,2.0
# From MPC 82723
273P/Pons-Gambart,e,136.3587,320.3830,20.1216,31.92162,0.0054648,0.97452596,0.0000,12/21.8952/2012,2000,g 11.5,4.0
# From MPEC 2024-GJ3
274P/Tombaugh-Tenagra,e,15.8205,81.3175,38.4963,4.378505,0.1075760,0.44025561,127.4557,07/07.0/2025,2000,g 13.0,4.0
# From MPC 81862
275P/Hermann,e,21.2540,348.6840,173.8933,5.796391,0.0706265,0.71377326,326.2421,07/07.0/2025,2000,g 17.0,4.0
# From MPC184419
276P/Vorobjov,e,14.7696,211.2459,199.3913,5.369569,0.0792127,0.27394309,16.4649,07/07.0/2025,2000,g 11.5,4.0
# From MPEC 2021-F20
277P/LINEAR,e,16.7931,276.2600,152.4386,3.853595,0.1302882,0.50639372,214.7458,07/07.0/2025,2000,g 15.1,4.0
# From MPEC 2021-S45
278P/McNaught,e,6.6123,12.4298,240.7776,3.637765,0.1420536,0.45206049,246.3827,07/07.0/2025,2000,g 14.0,4.0
# From MPEC 2024-A43
279P/LaSagra,e,5.0532,346.0983,5.6239,3.567860,0.1462488,0.39947846,118.5002,07/07.0/2025,2000,g 14.0,4.0
# From MPEC 2024-RQ6
280P/Larsen,e,11.7754,131.3779,104.6337,4.524365,0.1024160,0.41683113,71.9590,07/07.0/2025,2000,g 12.5,4.0
# From MPEC 2023-D41
281P/MOSS,e,4.7176,87.1663,27.0220,4.886934,0.0912325,0.17392785,80.6216,07/07.0/2025,2000,g 11.0,4.0
# From MPC133426
282P/,e,5.8138,217.6071,9.0839,4.235409,0.1130735,0.18765399,153.0361,07/07.0/2025,2000,g 13.5,2.0
# From MPEC 2022-K19
283P/Spacewatch,e,14.4687,161.1238,22.1443,4.131618,0.1173610,0.48501756,164.0261,07/07.0/2025,2000,g 16.0,2.0
# From MPEC 2024-D33
284P/McNaught,e,11.8529,144.2639,202.4615,3.678987,0.1396728,0.37429353,194.8174,07/07.0/2025,2000,g 13.0,4.0
# From MPEC 2024-L77
285P/LINEAR,e,25.0324,185.5143,178.3840,4.505283,0.1030673,0.61805340,93.5039,07/07.0/2025,2000,g 15.0,4.0
# From MPEC 2024-LE0
286P/Christensen,e,17.2328,283.5768,23.9721,4.076316,0.1197574,0.43149460,137.8739,07/07.0/2025,2000,g 14.0,4.0
# From MPEC 2025-A40
287P/Christensen,e,16.3484,138.6464,190.5618,4.189170,0.1149508,0.27285745,83.5661,07/07.0/2025,2000,g 13.5,4.0
# From MPC133426
288P/,e,3.2383,83.1063,280.2837,3.050596,0.1849810,0.19959324,226.4430,07/07.0/2025,2000,g 16.0,2.0
# From MPEC 2024-O39
289P/Blanpain,e,5.9002,68.8906,9.8748,3.043596,0.1856195,0.68644896,15.5333,07/07.0/2025,2000,g 19.0,4.0
# From MPC 95214
290P/Jager,e,20.0448,302.6716,181.8618,6.213543,0.0636349,0.62825733,266.0619,07/07.0/2025,2000,g 10.5,4.0
# From MPEC 2024-YC7
291P/NEAT,e,6.3096,237.6620,173.5666,4.535027,0.1020550,0.43384872,81.1351,07/07.0/2025,2000,g 13.0,4.0
# From MPEC 2022-K19
292P/Li,e,24.3226,90.8953,319.6626,6.095801,0.0654874,0.58987217,272.5266,07/07.0/2025,2000,g 12.5,4.0
# From MPEC 2022-L66
293P/Spacewatch,e,9.0609,78.3602,40.9894,3.637572,0.1420649,0.41955155,235.6884,07/07.0/2025,2000,g 14.5,4.0
# From MPC184419
